#cP2017 10 29  0  0  0.00000000      96 ORBIT IGS14 HLM  IGS
## 1973      0.00000000   900.00000000 58055 0.0000000000000
+   32   G01G02G03G04G05G06G07G08G09G10G11G12G13G14G15G16G17
+        G18G19G20G21G22G23G24G25G26G27G28G29G30G31G32  0  0
+          0  0  0  0  0  0  0  0  0  0  0  0  0  0  0  0  0
+          0  0  0  0  0  0  0  0  0  0  0  0  0  0  0  0  0
+          0  0  0  0  0  0  0  0  0  0  0  0  0  0  0  0  0
++         2  2  2  0  3  2  2  2  2  2  2  2  2  2  3  2  2
++         2  2  2  3  2  2  2  2  2  2  2  3  2  2  2  0  0
++         0  0  0  0  0  0  0  0  0  0  0  0  0  0  0  0  0
++         0  0  0  0  0  0  0  0  0  0  0  0  0  0  0  0  0
++         0  0  0  0  0  0  0  0  0  0  0  0  0  0  0  0  0
%c G  cc GPS ccc cccc cccc cccc cccc ccccc ccccc ccccc ccccc
%c cc cc ccc ccc cccc cccc cccc cccc ccccc ccccc ccccc ccccc
%f  1.2500000  1.025000000  0.00000000000  0.000000000000000
%f  0.0000000  0.000000000  0.00000000000  0.000000000000000
%i    0    0    0    0      0      0      0      0         0
%i    0    0    0    0      0      0      0      0         0
/* RAPID ORBIT COMBINATION FROM WEIGHTED AVERAGE OF:        
/* cod emr esa gfz jpl sio usn                              
/* REFERENCED TO IGS TIME (IGST) AND TO WEIGHTED MEAN POLE: 
/* PCV:IGS14_1972 OL/AL:FES2004  NONE     Y  ORB:CMB CLK:CMB
*  2017 10 29  4 30  0.00000000
PG01  -6369.444182 -14081.968481 -21762.052437     -6.988241  4  6  4 102       
PG02 -16636.848175  14753.879147  14817.726150    294.665502  8 11  3 125       
PG03 -12550.681759 -22422.828187  -6827.296556    -49.718851  3  8  7  94       
PG04  13199.313610 -19771.265315  11088.703320 999999.999999
PG05  -4976.858580  16375.627490  20158.476162    -24.483551  6 10  3  94       
PG06 -25296.269722   7190.101171   3783.096559    407.132988  6  8  8 105       
PG07 -21045.919181  -7316.111975  14984.709444    286.932423  4  7  5  86       
PG08   5026.210230 -25451.947327  -5366.836985    -78.674159  4  5  5  76       
PG09 -11223.992836 -12300.813905  20660.607302    464.401561  2  6  6  90       
PG10  19669.491230   4529.079299 -17309.159871     99.243291  7  6  6  99       
PG11  -1808.759109 -17866.541108 -20169.551665   -723.733240  4  5     78       
PG12   8672.327571  23087.312033 -10279.155605    367.161992  7 10  7 100       
PG13 -12084.165446  23663.328190    235.581545    -93.329344  8  9  7 112       
PG14  17259.066296 -13683.553160 -14444.676331    -87.328205  5  3  5 108       
PG15  -1140.018933  25266.863700  -7620.767715   -356.905390  7 11  6  97       
PG16   5334.897003 -15746.366121  20476.575955     36.713845  6  8  7 116       
PG17 -16398.499386   4565.965752 -19974.813847   -148.047156  7  7  2  90       
PG18  21073.205659  13896.582764  -7950.716459    632.003400  5  7  8 108       
PG19 -17709.538639  12514.251539 -15767.128265   -478.659444  8  7  4 112       
PG20  10794.406010  21709.430987  10729.261400    491.142626  5 10  4 116       
PG21  22813.748432   5015.804036  13491.426651   -467.046586  5  5  7  38       
PG22  -6720.339126 -21878.967343 -13211.569899   -170.733807  9 10  4  86       
PG23  -4584.930153 -20987.631538  15593.425038   -218.400745  4  7  5  95       
PG24   3422.643959  15250.078501 -21566.190316    -41.509832  9  8  4 103       
PG25  17588.929815  20029.385853   1021.040397   -480.516419  7  6  5  88       
PG26  13519.921812  -7579.741459  21580.848847   -381.256273  5  7  6  97       
PG27  12454.753036 -22497.525851   6099.461111    342.228077  6  9  8 103       
PG28 -19059.756391  -9804.971938 -15041.187539    657.969342  6  8    107       
PG29   6673.675788  16986.849116  19288.973646    545.214206  7  8  2  73       
PG30 -26046.859123   -904.534318   5511.952008    131.677907  7  8  6  97       
PG31  24662.159594  -8149.452273   6561.667724    165.736909  5  7  5  88       
PG32  16879.814282  -7630.926523 -18985.475197   -518.247534  2  5  7  92       
*  2017 10 29  4 45  0.00000000
PG01  -3951.481645 -14585.209237 -21980.031796     -6.990266  3  6  4  91       
PG02 -18151.892282  14914.608002  12611.410418    294.657203  8 11  4 124       
PG03 -11755.557305 -21887.303499  -9471.005037    -49.714247  3  9  7  98       
PG04  13132.135306 -18301.624227  13455.380907 999999.999999
PG05  -6667.336627  14694.936411  20964.277565    -24.482615  5  9  3  89       
PG06 -25606.100303   7019.706224    929.354604    407.134775  6  8  8  99       
PG07 -19327.477256  -7790.035961  16920.585158    286.928051  4  8  4 104       
PG08   5392.251114 -25818.144236  -2537.581236    -78.675715  4  5  5  60       
PG09 -10433.968185 -14478.276705  19638.983336    464.406242  2  6  6  85       
PG10  20803.475261   6028.760338 -15438.947344     99.250729  6  4  6 100       
PG11     36.085608 -19001.525521 -19170.231485   -723.735193  4  6     76       
PG12   7768.583011  22163.609603 -12757.466245    367.160801  7 10  7  86       
PG13 -12206.823458  23383.003415   3098.918136    -93.329791  8  9  7 107       
PG14  16741.318975 -11929.117001 -16447.849080    -87.329165  5  5  5 124       
PG15  -1653.877993  25870.303833  -4933.559174   -356.905702  7 12  6  84       
PG16   6863.394316 -13862.604180  21392.884774     36.713635  5  8  7 116       
PG17 -15611.174713   2278.928730 -20968.313409   -148.045093  6  6  2  52       
PG18  21420.286084  14718.760328  -5316.939142    632.003923  4  8  8 112       
PG19 -17072.120208  10770.580970 -17657.884075   -478.657542  8  6  3 111       
PG20   9572.546338  20991.764650  13033.840653    491.143740  5 10  4 103       
PG21  21367.253982   5600.478855  15585.203785   -467.043502  5  6  7  83       
PG22  -5345.837535 -20881.842821 -15260.454023   -170.745276  9 10  4  98       
PG23  -3860.165474 -22483.064688  13494.123739   -218.401157  3  7  5 110       
PG24   1042.884407  15812.407631 -21382.519307    -41.510628  9  8  5 115       
PG25  17423.102863  20136.479312  -1851.151216   -480.522050  6  7  6  84       
PG26  15142.610618  -5758.406378  21068.890941   -381.244722  5  7  6 103       
PG27  12394.618715 -21608.130776   8825.746557    342.231802  5  7  7  93       
PG28 -19952.766202 -11245.906601 -12800.192812    657.972114  6  7     97       
PG29   5802.463421  18915.684186  17713.259707    545.210013  7  9     77       
PG30 -25315.437103  -1289.630078   8183.740436    131.675542  7  8  6 104       
PG31  25267.653081  -8049.480493   3801.617484    165.734746  4  5  5  91       
PG32  16306.471382  -5452.469203 -20202.115079   -518.251069  2  5  6  91       
*  2017 10 29  5  0  0.00000000
PG01  -1558.078811 -15219.321538 -21824.589374     -6.992287  4  6  4  86       
PG02 -19415.192010  15068.116511  10190.617422    294.648582  7 11  4 116       
PG03 -10728.042119 -21189.772678 -11952.228955    -49.709619  3  8  7  99       
PG04  13096.714396 -16576.892887  15581.900256 999999.999999
PG05  -8488.712255  13052.095196  21405.066800    -24.481735  5  8  3  91       
PG06 -25612.161021   6779.396105  -1940.370001    407.136549  6  7  8  95       
PG07 -17441.097972  -8404.357314  18574.351532    286.923370  4  8  4  91       
PG08   5659.184901 -25888.911974    335.667509    -78.677052  5  6  5  64       
PG09  -9788.662447 -16562.252231  18278.511696    464.410869  4  6  6  65       
PG10  21852.669501   7307.473391 -13304.186269     99.258168  6  2  6  91       
PG11   1731.124680 -20138.952266 -17856.569837   -723.736654  3  7     56       
PG12   6635.889908  21094.284664 -15020.297610    367.159448  6 10  7  83       
PG13 -12227.703227  22809.699838   5908.897390    -93.330430  7  9  7 109       
PG14  16244.917729  -9948.322167 -18160.399102    -87.329828  4  6  5 120       
PG15  -2084.930689  26192.583218  -2159.795040   -356.905949  7 12  6  84       
PG16   8546.838564 -12006.362963  21934.356375     36.713505  4  7  6 102       
PG17 -14921.181685   -136.108503 -21587.714555   -148.042905  6  5  2  72       
PG18  21582.345364  15316.278496  -2591.260887    632.004376  3  9  7 108       
PG19 -16465.799302   8811.237091 -19253.470425   -478.655588  7  6  2 110       
PG20   8124.978638  20175.616841  15112.532660    491.144729  5 10  5 107       
PG21  19749.123160   6319.175577  17424.616997   -467.040356  5  7  8  75       
PG22  -3764.222739 -19802.904251 -17042.228358   -170.756855  9 10  4  66       
PG23  -3268.094379 -23771.896765  11161.152898   -218.401279  4  7  4 114       
PG24  -1269.363346  16480.382652 -20833.168212    -41.509860  8  8  5 105       
PG25  17036.084467  20024.643752  -4691.963215   -480.527734  5  7  6 103       
PG26  16800.197989  -4078.415211  20195.101676   -381.233220  5  6  6 101       
PG27  12307.282441 -20424.041691  11397.846051    342.235508  5  6  7  86       
PG28 -20747.105576 -12423.383551 -10330.667636    657.975068  6  7    106       
PG29   5100.451243  20703.244099  15832.592657    545.205590  6 10     81       
PG30 -24317.427458  -1771.904554  10715.878696    131.673256  7  8  5  90       
PG31  25573.316915  -7908.839468    977.801920    165.732094  4  2  5 110       
PG32  15816.935536  -3133.334858 -21069.884545   -518.254584  3  5  5 105       
EOF
